CCSDS_OMM_VERS,COMMENT,CREATION_DATE,ORIGINATOR,OBJECT_NAME,OBJECT_ID,CENTER_NAME,REF_FRAME,TIME_SYSTEM,MEAN_ELEMENT_THEORY,EPOCH,MEAN_MOTION,ECCENTRICITY,INCLINATION,RA_OF_ASC_NODE,ARG_OF_PERICENTER,MEAN_ANOMALY,EPHEMERIS_TYPE,CLASSIFICATION_TYPE,NORAD_CAT_ID,ELEMENT_SET_NO,REV_AT_EPOCH,BSTAR,MEAN_MOTION_DOT,MEAN_MOTION_DDOT,SEMIMAJOR_AXIS,PERIOD,APOAPSIS,PERIAPSIS,OBJECT_TYPE,RCS_SIZE,COUNTRY_CODE,LAUNCH_DATE,SITE,DECAY_DATE,FILE,GP_ID,TLE_LINE0,TLE_LINE1,TLE_LINE2
2,GENERATED VIA SPACE-TRACK.ORG API,2022-04-01T06:46:18,18 SPCS,GALILEO-FM3,2012-055A,EARTH,TEME,UTC,SGP4,2022-03-31T20:41:40.590240,1.7047367,0.0004929,55.1131,143.8312,262.1287,97.906,0,U,38857,999,5892,0.0,3e-07,0,29600.358,844.705,23236.813,23207.633,PAYLOAD,LARGE,ESA,2012-10-12,FRGUI,,3382447,200187391,0 GALILEO-FM3,1 38857U 12055A   22090.86227535  .00000030  00000-0  00000+0 0  9997,2 38857  55.1131 143.8312 0004929 262.1287  97.9060  1.70473670 58923
2,GENERATED VIA SPACE-TRACK.ORG API,2022-04-03T02:39:25,18 SPCS,GALILEO-FM3,2012-055A,EARTH,TEME,UTC,SGP4,2022-04-02T00:51:02.346048,1.70473697,0.0004967,55.1134,143.799,262.4371,97.5973,0,U,38857,999,5880,0.0,2.9e-07,0,29600.355,844.705,23236.923,23207.518,PAYLOAD,LARGE,ESA,2012-10-12,FRGUI,,3385473,200316139,0 GALILEO-FM3,1 38857U 12055A   22092.03544382  .00000029  00000-0  00000-0 0  9999,2 38857  55.1134 143.7990 0004967 262.4371  97.5973  1.70473697 58801
2,GENERATED VIA SPACE-TRACK.ORG API,2022-04-04T03:26:05,18 SPCS,GALILEO-FM3,2012-055A,EARTH,TEME,UTC,SGP4,2022-04-02T14:55:43.037760,1.70473722,0.0004997,55.1136,143.7829,262.6736,97.3595,0,U,38857,999,5881,0.0,2.8e-07,0,29600.352,844.705,23237.009,23207.426,PAYLOAD,LARGE,ESA,2012-10-12,FRGUI,,3386965,200373664,0 GALILEO-FM3,1 38857U 12055A   22092.62202590  .00000028  00000-0  00000-0 0  9995,2 38857  55.1136 143.7829 0004997 262.6736  97.3595  1.70473722 58812
2,GENERATED VIA SPACE-TRACK.ORG API,2022-04-05T17:52:12,18 SPCS,GALILEO-FM3,2012-055A,EARTH,TEME,UTC,SGP4,2022-04-04T23:14:25.337184,1.70473758,0.0005048,55.1142,143.7183,263.2055,96.8191,0,U,38857,999,5885,0.0,2.3e-07,0,29600.348,844.705,23237.155,23207.271,PAYLOAD,LARGE,ESA,2012-10-12,FRGUI,,3389439,200503044,0 GALILEO-FM3,1 38857U 12055A   22094.96834881  .00000023  00000-0  00000-0 0  9993,2 38857  55.1142 143.7183 0005048 263.2055  96.8191  1.70473758 58850
2,GENERATED VIA SPACE-TRACK.ORG API,2022-04-05T06:46:14,18 SPCS,GALILEO-FM3,2012-055A,EARTH,TEME,UTC,SGP4,2022-04-04T23:14:25.337184,1.70473758,0.0005048,55.1142,143.7183,263.2055,96.8191,0,U,38857,999,5899,0.0,2.3e-07,0,29600.348,844.705,23237.155,23207.271,PAYLOAD,LARGE,ESA,2012-10-12,FRGUI,,3388606,200467974,0 GALILEO-FM3,1 38857U 12055A   22094.96834881  .00000023  00000-0  00000+0 0  9992,2 38857  55.1142 143.7183 0005048 263.2055  96.8191  1.70473758 58995
2,GENERATED VIA SPACE-TRACK.ORG API,2022-04-06T17:30:31,18 SPCS,GALILEO-FM3,2012-055A,EARTH,TEME,UTC,SGP4,2022-04-05T13:19:05.836224,1.70473774,0.0005057,55.1144,143.7021,263.3406,96.6816,0,U,38857,999,5886,0.0,2.3e-07,0,29600.346,844.705,23237.18,23207.242,PAYLOAD,LARGE,ESA,2012-10-12,FRGUI,,3390907,200583896,0 GALILEO-FM3,1 38857U 12055A   22095.55492866  .00000023  00000-0  00000-0 0  9992,2 38857  55.1144 143.7021 0005057 263.3406  96.6816  1.70473774 58865
2,GENERATED VIA SPACE-TRACK.ORG API,2022-04-06T02:30:27,18 SPCS,GALILEO-FM3,2012-055A,EARTH,TEME,UTC,SGP4,2022-04-05T13:19:05.862144,1.70473768,0.000506,55.1144,143.7022,263.3259,96.6963,0,U,38857,999,5886,0.0,2.3e-07,0,29600.347,844.705,23237.19,23207.234,PAYLOAD,LARGE,ESA,2012-10-12,FRGUI,,3389912,200537887,0 GALILEO-FM3,1 38857U 12055A   22095.55492896  .00000023  00000-0  00000-0 0  9995,2 38857  55.1144 143.7022 0005060 263.3259  96.6963  1.70473768 58862
2,GENERATED VIA SPACE-TRACK.ORG API,2022-04-07T20:47:15,18 SPCS,GALILEO-FM3,2012-055A,EARTH,TEME,UTC,SGP4,2022-04-06T17:28:26.996736,1.70473792,0.0005081,55.1147,143.6699,263.6383,96.3798,0,U,38857,999,5888,0.0,2.5e-07,0,29600.344,844.705,23237.249,23207.169,PAYLOAD,LARGE,ESA,2012-10-12,FRGUI,,3391885,200654981,0 GALILEO-FM3,1 38857U 12055A   22096.72809024  .00000025  00000-0  00000-0 0  9992,2 38857  55.1147 143.6699 0005081 263.6383  96.3798  1.70473792 58880
2,GENERATED VIA SPACE-TRACK.ORG API,2022-04-08T18:02:10,18 SPCS,GALILEO-FM3,2012-055A,EARTH,TEME,UTC,SGP4,2022-04-08T11:42:29.241216,1.70473799,0.0005099,55.1153,143.6215,263.851,96.1647,0,U,38857,999,5891,0.0,3.2e-07,0,29600.343,844.705,23237.302,23207.115,PAYLOAD,LARGE,ESA,2012-10-12,FRGUI,,3393517,200739825,0 GALILEO-FM3,1 38857U 12055A   22098.48783844  .00000032  00000-0  00000-0 0  9996,2 38857  55.1153 143.6215 0005099 263.8510  96.1647  1.70473799 58916
2,GENERATED VIA SPACE-TRACK.ORG API,2022-04-08T22:26:12,18 SPCS,GALILEO-FM3,2012-055A,EARTH,TEME,UTC,SGP4,2022-04-08T11:42:29.241216,1.70473799,0.0005099,55.1153,143.6215,263.851,96.1647,0,U,38857,999,5905,0.0,3.2e-07,0,29600.343,844.705,23237.302,23207.115,PAYLOAD,LARGE,ESA,2012-10-12,FRGUI,,3393641,200751511,0 GALILEO-FM3,1 38857U 12055A   22098.48783844  .00000032  00000-0  00000+0 0  9995,2 38857  55.1153 143.6215 0005099 263.8510  96.1647  1.70473799 59052
2,GENERATED VIA SPACE-TRACK.ORG API,2022-04-11T18:48:32,18 SPCS,GALILEO-FM3,2012-055A,EARTH,TEME,UTC,SGP4,2022-04-10T20:01:13.372320,1.70473791,0.0005146,55.1161,143.557,264.2532,95.7672,0,U,38857,999,5895,0.0,4.7e-07,0,29600.344,844.705,23237.442,23206.977,PAYLOAD,LARGE,ESA,2012-10-12,FRGUI,,3397378,200978924,0 GALILEO-FM3,1 38857U 12055A   22100.83418255  .00000047  00000-0  00000-0 0  9996,2 38857  55.1161 143.5570 0005146 264.2532  95.7672  1.70473791 58959
2,GENERATED VIA SPACE-TRACK.ORG API,2022-04-11T06:26:12,18 SPCS,GALILEO-FM3,2012-055A,EARTH,TEME,UTC,SGP4,2022-04-10T20:01:13.372320,1.70473791,0.0005146,55.1161,143.557,264.2532,95.7672,0,U,38857,999,5909,0.0,4.7e-07,0,29600.344,844.705,23237.442,23206.977,PAYLOAD,LARGE,ESA,2012-10-12,FRGUI,,3396648,200946266,0 GALILEO-FM3,1 38857U 12055A   22100.83418255  .00000047  00000-0  00000+0 0  9995,2 38857  55.1161 143.5570 0005146 264.2532  95.7672  1.70473791 59095
2,GENERATED VIA SPACE-TRACK.ORG API,2022-04-12T20:33:25,18 SPCS,GALILEO-FM3,2012-055A,EARTH,TEME,UTC,SGP4,2022-04-12T00:10:35.802048,1.7047377,0.0005181,55.1164,143.5248,264.5943,95.4309,0,U,38857,999,5897,0.0,5.6e-07,0,29600.347,844.705,23237.548,23206.876,PAYLOAD,LARGE,ESA,2012-10-12,FRGUI,,3398537,201054283,0 GALILEO-FM3,1 38857U 12055A   22102.00735882  .00000056  00000-0  00000-0 0  9995,2 38857  55.1164 143.5248 0005181 264.5943  95.4309  1.70473770 58975
2,GENERATED VIA SPACE-TRACK.ORG API,2022-04-13T02:52:26,18 SPCS,GALILEO-FM3,2012-055A,EARTH,TEME,UTC,SGP4,2022-04-12T14:15:17.049312,1.70473761,0.0005196,55.1166,143.5086,264.7066,95.3213,0,U,38857,999,5898,0.0,6e-07,0,29600.348,844.705,23237.593,23206.832,PAYLOAD,LARGE,ESA,2012-10-12,FRGUI,,3398892,201087217,0 GALILEO-FM3,1 38857U 12055A   22102.59394733  .00000060  00000-0  00000-0 0  9990,2 38857  55.1166 143.5086 0005196 264.7066  95.3213  1.70473761 58985
2,GENERATED VIA SPACE-TRACK.ORG API,2022-04-13T17:48:43,18 SPCS,GALILEO-FM3,2012-055A,EARTH,TEME,UTC,SGP4,2022-04-13T04:19:58.283616,1.70473755,0.0005201,55.1168,143.4925,264.7331,95.2975,0,U,38857,999,5899,0.0,6.5e-07,0,29600.348,844.705,23237.609,23206.818,PAYLOAD,LARGE,ESA,2012-10-12,FRGUI,,3399963,201135065,0 GALILEO-FM3,1 38857U 12055A   22103.18053569  .00000065  00000-0  00000-0 0  9990,2 38857  55.1168 143.4925 0005201 264.7331  95.2975  1.70473755 58998
2,GENERATED VIA SPACE-TRACK.ORG API,2022-04-13T14:36:11,18 SPCS,GALILEO-FM3,2012-055A,EARTH,TEME,UTC,SGP4,2022-04-13T04:19:58.283616,1.70473755,0.0005201,55.1168,143.4925,264.7331,95.2975,0,U,38857,999,5913,0.0,6.5e-07,0,29600.348,844.705,23237.609,23206.818,PAYLOAD,LARGE,ESA,2012-10-12,FRGUI,,3399500,201110104,0 GALILEO-FM3,1 38857U 12055A   22103.18053569  .00000065  00000-0  00000+0 0  9999,2 38857  55.1168 143.4925 0005201 264.7331  95.2975  1.70473755 59135
2,GENERATED VIA SPACE-TRACK.ORG API,2022-04-14T21:29:34,18 SPCS,GALILEO-FM3,2012-055A,EARTH,TEME,UTC,SGP4,2022-04-14T08:29:20.591520,1.70473728,0.0005227,55.1172,143.4602,264.9664,95.0682,0,U,38857,999,5901,0.0,7.2e-07,0,29600.352,844.705,23237.689,23206.744,PAYLOAD,LARGE,ESA,2012-10-12,FRGUI,,3401567,201218258,0 GALILEO-FM3,1 38857U 12055A   22104.35371055  .00000072  00000-0  00000-0 0  9991,2 38857  55.1172 143.4602 0005227 264.9664  95.0682  1.70473728 59011
2,GENERATED VIA SPACE-TRACK.ORG API,2022-04-15T19:21:04,18 SPCS,GALILEO-FM3,2012-055A,EARTH,TEME,UTC,SGP4,2022-04-14T22:34:01.609824,1.70473698,0.0005248,55.1174,143.444,265.1432,94.8923,0,U,38857,999,5902,0.0,7.6e-07,0,29600.355,844.705,23237.754,23206.686,PAYLOAD,LARGE,ESA,2012-10-12,FRGUI,,3403095,201299841,0 GALILEO-FM3,1 38857U 12055A   22104.94029641  .00000076  00000-0  00000-0 0  9991,2 38857  55.1174 143.4440 0005248 265.1432  94.8923  1.70473698 59024
2,GENERATED VIA SPACE-TRACK.ORG API,2022-04-18T02:08:09,18 SPCS,GALILEO-FM3,2012-055A,EARTH,TEME,UTC,SGP4,2022-04-17T06:52:44.387040,1.70473648,0.0005282,55.1182,143.3794,265.4007,94.6297,0,U,38857,999,5906,0.0,7.7e-07,0,29600.361,844.705,23237.861,23206.591,PAYLOAD,LARGE,ESA,2012-10-12,FRGUI,,3405839,201488777,0 GALILEO-FM3,1 38857U 12055A   22107.28662485  .00000077  00000-0  00000-0 0  9991,2 38857  55.1182 143.3794 0005282 265.4007  94.6297  1.70473648 59064
2,GENERATED VIA SPACE-TRACK.ORG API,2022-04-18T06:46:11,18 SPCS,GALILEO-FM3,2012-055A,EARTH,TEME,UTC,SGP4,2022-04-17T06:52:44.387040,1.70473648,0.0005282,55.1182,143.3794,265.4007,94.6297,0,U,38857,999,5920,0.0,7.7e-07,0,29600.361,844.705,23237.861,23206.591,PAYLOAD,LARGE,ESA,2012-10-12,FRGUI,,3405916,201500387,0 GALILEO-FM3,1 38857U 12055A   22107.28662485  .00000077  00000-0  00000+0 0  9990,2 38857  55.1182 143.3794 0005282 265.4007  94.6297  1.70473648 59200
